NORAD_CAT_ID,OBJECT_NAME,OBJECT_TYPE,EPOCH,MEAN_MOTION,ECCENTRICITY,INCLINATION,RA_OF_ASC_NODE,ARG_OF_PERICENTER,MEAN_ANOMALY,BSTAR,MEAN_MOTION_DOT,MEAN_MOTION_DDOT,TLE_LINE0,TLE_LINE1,TLE_LINE2,SEMIMAJOR_AXIS,PERIOD,APOGEE,PERIGEE,DECAYED
53740.0,STARLINK-4607,PAYLOAD,2023-05-30 06:44:06,15.08839399,9.95e-05,53.2153,137.8712,85.8221,274.2885,4.1623e-05,3.75e-06,0.0,0 STARLINK-4607,1 53740U 22107AS  23150.28063498  .00000375  00000-0  41623-4 0  9997,2 53740  53.2153 137.8712 0000995  85.8221 274.2885 15.08839399 41453,6917.882,95.438,540.436,539.059,0.0
53740.0,STARLINK-4607,PAYLOAD,2023-05-30 22:37:58,15.08839204,9.94e-05,53.2153,134.8975,85.1628,274.9477,5.4478e-05,5.79e-06,0.0,0 STARLINK-4607,1 53740U 22107AS  23150.94303485  .00000579  00000-0  54478-4 0  9991,2 53740  53.2153 134.8975 0000994  85.1628 274.9477 15.08839204 40777,6917.883,95.438,540.435,539.06,0.0
53740.0,STARLINK-4607,PAYLOAD,2023-05-31 08:10:16,15.08843858,0.0001009,53.2154,133.1133,84.5038,275.6069,7.444e-05,8.97e-06,0.0,0 STARLINK-4607,1 53740U 22107AS  23151.34047126  .00000897  00000-0  74440-4 0  9997,2 53740  53.2154 133.1133 0001009  84.5038 275.6069 15.08843858 41611,6917.869,95.437,540.432,539.036,0.0
53740.0,STARLINK-4607,PAYLOAD,2023-05-31 16:07:12,15.08839586,0.0001029,53.2154,131.6265,83.7843,276.3266,3.6327e-05,2.9e-06,0.0,0 STARLINK-4607,1 53740U 22107AS  23151.67167478  .00000290  00000-0  36327-4 0  9995,2 53740  53.2154 131.6265 0001029  83.7843 276.3266 15.08839586 41662,6917.882,95.438,540.459,539.035,0.0
53740.0,STARLINK-4607,PAYLOAD,2023-06-01 04:50:17,15.08839682,0.0001101,53.2155,129.2472,88.7212,271.3906,2.5383e-05,1.16e-06,0.0,0 STARLINK-4607,1 53740U 22107AS  23152.20159541  .00000116  00000-0  25383-4 0  9994,2 53740  53.2155 129.2472 0001101  88.7212 271.3906 15.08839682 41744,6917.881,95.438,540.508,538.985,0.0
53740.0,STARLINK-4607,PAYLOAD,2023-06-02 07:51:50,15.0884406,0.0001129,53.2154,124.1914,91.55,268.5622,3.1196e-05,2.09e-06,0.0,0 STARLINK-4607,1 53740U 22107AS  23153.32767118  .00000209  00000-0  31196-4 0  9995,2 53740  53.2154 124.1914 0001129  91.5500 268.5622 15.08844060 41132,6917.868,95.437,540.514,538.952,0.0
53740.0,STARLINK-4607,PAYLOAD,2023-06-03 02:56:29,15.08833987,0.0001205,53.2153,120.6222,95.5657,264.5472,-6.1783e-06,-3.86e-06,0.0,0 STARLINK-4607,1 53740U 22107AS  23154.12256004 -.00000386  00000-0 -61783-5 0  9995,2 53740  53.2153 120.6222 0001205  95.5657 264.5472 15.08833987 41254,6917.899,95.438,540.597,538.93,0.0
53740.0,STARLINK-4607,PAYLOAD,2023-06-03 04:31:52,15.08835179,0.0001228,53.2157,120.3249,96.7598,263.3534,6.1532e-06,-1.9e-06,0.0,0 STARLINK-4607,1 53740U 22107AS  23154.18879918 -.00000190  00000-0  61532-5 0  9990,2 53740  53.2157 120.3249 0001228  96.7598 263.3534 15.08835179 42045,6917.895,95.438,540.61,538.911,0.0
53740.0,STARLINK-4607,PAYLOAD,2023-06-03 22:01:06,15.08835676,0.0001196,53.2157,117.0536,95.8087,264.3042,-2.2268e-05,-6.42e-06,0.0,0 STARLINK-4607,1 53740U 22107AS  23154.91744191 -.00000642  00000-0 -22268-4 0  9990,2 53740  53.2157 117.0536 0001196  95.8087 264.3042 15.08835676 42153,6917.894,95.438,540.586,538.931,0.0
53740.0,STARLINK-4607,PAYLOAD,2023-06-04 04:22:39,15.08839312,0.000109,53.216,115.8654,88.7729,271.3388,1.4166e-05,-6.2e-07,0.0,0 STARLINK-4607,1 53740U 22107AS  23155.18239903 -.00000062  00000-0  14166-4 0  9993,2 53740  53.2160 115.8654 0001090  88.7729 271.3388 15.08839312 41411,6917.882,95.438,540.502,538.993,0.0
53740.0,STARLINK-4607,PAYLOAD,2023-06-04 21:51:54,15.08833339,0.000117,53.2165,112.5968,98.6787,261.4338,3.2219e-05,2.25e-06,0.0,0 STARLINK-4607,1 53740U 22107AS  23155.91104432  .00000225  00000-0  32219-4 0  9991,2 53740  53.2165 112.5968 0001170  98.6787 261.4338 15.08833339 42308,6917.901,95.438,540.575,538.956,0.0
53740.0,STARLINK-4607,PAYLOAD,2023-06-05 13:45:45,15.08834412,0.0001171,53.2165,109.6235,97.9615,262.1511,4.2472e-05,3.88e-06,0.0,0 STARLINK-4607,1 53740U 22107AS  23156.57344543  .00000388  00000-0  42472-4 0  9995,2 53740  53.2165 109.6235 0001171  97.9615 262.1511 15.08834412 42400,6917.897,95.438,540.573,538.952,0.0
53740.0,STARLINK-4607,PAYLOAD,2023-06-06 05:39:36,15.08841566,0.0001155,53.2164,106.6495,97.263,262.8493,7.9703e-05,9.81e-06,0.0,0 STARLINK-4607,1 53740U 22107AS  23157.23584114  .00000981  00000-0  79703-4 0  9995,2 53740  53.2164 106.6495 0001155  97.2630 262.8493 15.08841566 41724,6917.876,95.437,540.54,538.942,0.0
53740.0,STARLINK-4607,PAYLOAD,2023-06-06 23:08:51,15.08834428,0.0001126,53.2164,103.378,91.9014,268.2107,-1.1772e-05,-4.75e-06,0.0,0 STARLINK-4607,1 53740U 22107AS  23157.96449060 -.00000475  00000-0 -11772-4 0  9997,2 53740  53.2164 103.3780 0001126  91.9014 268.2107 15.08834428 41833,6917.897,95.438,540.541,538.983,0.0
53740.0,STARLINK-4607,PAYLOAD,2023-06-07 05:30:24,15.08837849,0.0001144,53.2162,102.1883,90.4869,269.6254,1.6324e-05,-2.8e-07,0.0,0 STARLINK-4607,1 53740U 22107AS  23158.22944811 -.00000028  00000-0  16324-4 0  9992,2 53740  53.2162 102.1883 0001144  90.4869 269.6254 15.08837849 42653,6917.887,95.438,540.543,538.961,0.0
53740.0,STARLINK-4607,PAYLOAD,2023-06-07 19:48:52,15.08834919,0.0001361,53.2171,99.5102,87.3127,272.8021,-5.0198e-06,-3.68e-06,0.0,0 STARLINK-4607,1 53740U 22107AS  23158.82561262 -.00000368  00000-0 -50198-5 0  9999,2 53740  53.2171  99.5102 0001361  87.3127 272.8021 15.08834919 42742,6917.896,95.438,540.702,538.819,0.0
53740.0,STARLINK-4607,PAYLOAD,2023-06-08 02:10:25,15.08838169,0.0001232,53.2165,98.3221,90.7553,269.358,2.3152e-05,8.1e-07,0.0,0 STARLINK-4607,1 53740U 22107AS  23159.09056946  .00000081  00000-0  23152-4 0  9996,2 53740  53.2165  98.3221 0001232  90.7553 269.3580 15.08838169 42003,6917.886,95.438,540.603,538.899,0.0
53740.0,STARLINK-4607,PAYLOAD,2023-06-08 05:21:11,15.08842421,0.0001272,53.2167,97.7268,89.8778,270.236,4.0642e-05,3.59e-06,0.0,0 STARLINK-4607,1 53740U 22107AS  23159.22304642  .00000359  00000-0  40642-4 0  9991,2 53740  53.2167  97.7268 0001272  89.8778 270.2360 15.08842421 42802,6917.873,95.437,540.618,538.858,0.0
53740.0,STARLINK-4607,PAYLOAD,2023-06-09 13:08:53,15.08841135,0.0001307,53.2169,91.7791,93.5033,266.6109,7.7287e-05,9.42e-06,0.0,0 STARLINK-4607,1 53740U 22107AS  23160.54784623  .00000942  00000-0  77287-4 0  9992,2 53740  53.2169  91.7791 0001307  93.5033 266.6109 15.08841135 43008,6917.877,95.437,540.646,538.838,0.0
53740.0,STARLINK-4607,PAYLOAD,2023-06-10 01:51:59,15.08842299,0.0001361,53.2174,89.4005,94.2952,265.8196,3.2664e-05,2.32e-06,0.0,0 STARLINK-4607,1 53740U 22107AS  23161.07776689  .00000232  00000-0  32664-4 0  9996,2 53740  53.2174  89.4005 0001361  94.2952 265.8196 15.08842299 43081,6917.873,95.437,540.68,538.797,0.0
53740.0,STARLINK-4607,PAYLOAD,2023-06-10 16:10:27,15.08836185,9.9e-05,53.2169,86.7248,95.9592,264.1513,1.396e-05,-6.6e-07,0.0,0 STARLINK-4607,1 53740U 22107AS  23161.67393023 -.00000066  00000-0  13960-4 0  9993,2 53740  53.2169  86.7248 0000990  95.9592 264.1513 15.08836185 42394,6917.892,95.438,540.442,539.072,0.0
53740.0,STARLINK-4607,PAYLOAD,2023-06-10 19:21:14,15.08783361,0.0001469,53.2168,86.1301,103.7542,256.3614,0.0006031,9.309e-05,0.0,0 STARLINK-4607,1 53740U 22107AS  23161.80641251  .00009309  00000-0  60310-3 0  9995,2 53740  53.2168  86.1301 0001469 103.7542 256.3614 15.08783361 43193,6918.054,95.441,540.935,538.902,0.0
53740.0,STARLINK-4607,PAYLOAD,2023-06-11 11:15:05,15.08840805,0.0001075,53.2162,83.1561,102.2406,257.8706,-4.2154e-05,-9.59e-06,0.0,0 STARLINK-4607,1 53740U 22107AS  23162.46880990 -.00000959  00000-0 -42154-4 0  9994,2 53740  53.2162  83.1561 0001075 102.2406 257.8706 15.08840805 43294,6917.878,95.438,540.487,538.999,0.0
53740.0,STARLINK-4607,PAYLOAD,2023-06-11 20:47:23,15.08840111,0.0001285,53.2165,81.3725,89.5527,270.5612,3.6357e-05,2.91e-06,0.0,0 STARLINK-4607,1 53740U 22107AS  23162.86624941  .00000291  00000-0  36357-4 0  9995,2 53740  53.2165  81.3725 0001285  89.5527 270.5612 15.08840111 43358,6917.88,95.438,540.634,538.856,0.0
53740.0,STARLINK-4607,PAYLOAD,2023-06-12 01:33:33,15.08841457,0.0001217,53.2171,80.4825,82.8989,277.2141,7.1399e-05,8.49e-06,0.0,0 STARLINK-4607,1 53740U 22107AS  23163.06496755  .00000849  00000-0  71399-4 0  9992,2 53740  53.2171  80.4825 0001217  82.8989 277.2141 15.08841457 42601,6917.876,95.437,540.583,538.899,0.0
53740.0,STARLINK-4607,PAYLOAD,2023-06-12 11:05:52,15.08842317,0.0001222,53.2168,78.6983,86.4804,273.6328,-2.0982e-05,-6.22e-06,0.0,0 STARLINK-4607,1 53740U 22107AS  23163.46240923 -.00000622  00000-0 -20982-4 0  9993,2 53740  53.2168  78.6983 0001222  86.4804 273.6328 15.08842317 43449,6917.873,95.437,540.584,538.893,0.0
53740.0,STARLINK-4607,PAYLOAD,2023-06-12 14:16:38,15.0883203,0.0001241,53.2168,78.1028,85.253,274.8604,2.7926e-05,1.57e-06,0.0,0 STARLINK-4607,1 53740U 22107AS  23163.59489457  .00000157  00000-0  27926-4 0  9990,2 53740  53.2168  78.1028 0001241  85.2530 274.8604 15.08832030 42684,6917.905,95.438,540.628,538.911,0.0
53740.0,STARLINK-4607,PAYLOAD,2023-06-13 02:59:44,15.08830172,0.0001231,53.2169,75.7239,86.4207,273.6926,6.9065e-06,-1.78e-06,0.0,0 STARLINK-4607,1 53740U 22107AS  23164.12481892 -.00000178  00000-0  69065-5 0  9990,2 53740  53.2169  75.7239 0001231  86.4207 273.6926 15.08830172 43540,6917.91,95.438,540.627,538.924,0.0
53740.0,STARLINK-4607,PAYLOAD,2023-06-13 20:28:58,15.08836498,0.0001114,53.2171,72.4522,92.0193,268.0927,2.3895e-05,9.2e-07,0.0,0 STARLINK-4607,1 53740U 22107AS  23164.85345579  .00000092  00000-0  23895-4 0  9995,2 53740  53.2171  72.4522 0001114  92.0193 268.0927 15.08836498 43657,6917.891,95.438,540.527,538.985,0.0
53740.0,STARLINK-4607,PAYLOAD,2023-06-14 02:50:30,15.08845265,0.0001097,53.2171,71.2629,87.3099,272.8019,6.3759e-05,7.27e-06,0.0,0 STARLINK-4607,1 53740U 22107AS  23165.11840925  .00000727  00000-0  63759-4 0  9998,2 53740  53.2171  71.2629 0001097  87.3099 272.8019 15.08845265 42919,6917.864,95.437,540.488,538.97,0.0
